OBJECT_NAME,OBJECT_ID,EPOCH,MEAN_MOTION,ECCENTRICITY,INCLINATION,RA_OF_ASC_NODE,ARG_OF_PERICENTER,MEAN_ANOMALY,EPHEMERIS_TYPE,CLASSIFICATION_TYPE,NORAD_CAT_ID,ELEMENT_SET_NO,REV_AT_EPOCH,BSTAR,MEAN_MOTION_DOT,MEAN_MOTION_DDOT
STARLINK-5617,2023-028N,2026-07-02T11:13:26.872032,14.98330006,.00031155,69.9997,315.0255,269.9619,90.1183,0,U,55753,999,18323,-.6055855E-5,-.165E-5,0
STARLINK-5612,2023-028P,2026-07-02T15:49:35.641056,14.98328327,.00031199,69.9996,314.4898,270.3472,89.7329,0,U,55754,999,18326,-.4968005E-5,-.152E-5,0
STARLINK-5614,2023-028R,2026-07-02T10:37:09.058944,14.98332721,.0003011,69.9995,314.9353,267.9900,92.0914,0,U,55756,999,18323,.11893835E-4,.49E-6,0
STARLINK-5544,2023-028S,2026-07-02T11:07:11.861472,14.98331392,.00030518,69.9994,315.0095,268.6971,91.3838,0,U,55757,999,18323,.67710243E-4,.715E-5,0
STARLINK-5072,2023-028T,2026-07-02T15:43:35.030784,14.98328011,.00032709,69.9993,314.4759,270.0452,90.0332,0,U,55758,999,18326,-.10141484E-4,-.214E-5,0
STARLINK-5532,2023-028V,2026-07-02T10:31:08.169600,14.98328756,.00031257,69.9999,314.9227,269.4772,90.6029,0,U,55760,999,18323,.14340416E-4,.78E-6,0
STARLINK-5611,2023-028W,2026-07-02T10:01:02.168544,14.98328595,.00031595,69.9999,295.3708,271.8506,88.2291,0,U,55761,999,18371,-.2756619E-4,-.422E-5,0
STARLINK-5603,2023-028X,2026-07-02T14:31:10.116480,14.98328428,.00032325,69.9996,294.8202,270.5559,89.5230,0,U,55762,999,18374,-.16255205E-4,-.287E-5,0
STARLINK-5593,2023-028Y,2026-07-02T15:31:33.746304,14.98326959,.00032919,69.9997,314.4471,269.0302,91.0480,0,U,55763,999,18326,-.19407703E-4,-.325E-5,0
STARLINK-5499,2023-028Z,2026-07-02T11:24:55.476576,14.98332472,.00028162,70.0006,295.1726,259.9980,100.0861,0,U,55764,999,18372,-.18273066E-3,-.2273E-4,0
STARLINK-5595,2023-028AA,2026-07-02T11:30:55.158912,14.98331034,.00030629,69.9998,295.1859,270.0870,89.9938,0,U,55765,999,18372,-.8364673E-5,-.193E-5,0
STARLINK-5599,2023-028AB,2026-07-02T14:07:07.493088,14.98328775,.00043623,69.9982,294.7617,276.4078,83.6585,0,U,55766,999,18374,-.40788083E-4,-.58E-5,0
STARLINK-5606,2023-028AC,2026-07-02T10:00:47.905632,14.98334159,.00030645,69.9994,295.3691,269.4947,90.5860,0,U,55767,999,18369,.12017663E-3,.1341E-4,0
STARLINK-5584,2023-028AE,2026-07-02T14:19:08.962464,14.98327126,.00033956,69.9998,294.7920,269.5863,90.4907,0,U,55769,999,18374,-.20229526E-4,-.334E-5,0
STARLINK-5557,2023-028AF,2026-07-02T14:13:08.270112,14.98331241,.00030539,70.0001,294.7762,268.7585,91.3225,0,U,55770,999,18374,-.36654003E-4,-.53E-5,0
STARLINK-5591,2023-028AG,2026-07-02T14:01:07.221504,14.98319592,.00031326,69.9995,294.7468,267.6396,92.4405,0,U,55771,999,18374,-.12792467E-3,-.1619E-4,0
STARLINK-5835,2023-028AH,2026-07-02T13:37:18.622560,14.98327445,.00030781,69.9998,294.6890,271.6283,88.4524,0,U,55772,999,18374,-.4246813E-5,-.144E-5,0
STARLINK-5833,2023-028AJ,2026-07-02T14:25:09.545088,14.98332175,.00033795,69.9994,294.8028,269.9540,90.1232,0,U,55773,999,18374,-.56972345E-4,-.773E-5,0
STARLINK-5812,2023-028AK,2026-07-02T10:42:50.248224,14.98325551,.00031717,69.9998,295.0684,271.2854,88.7942,0,U,55774,999,18372,.331184E-5,-.54E-6,0
STARLINK-5809,2023-028AL,2026-07-02T13:49:05.741760,14.98325882,.0003184,69.9991,294.7166,270.8344,89.2450,0,U,55775,999,18374,-.9257529E-5,-.203E-5,0
STARLINK-5814,2023-028AN,2026-07-02T13:37:04.432224,14.98334697,.00030218,69.9992,294.6870,269.2417,90.8396,0,U,55777,999,18374,-.12380763E-3,-.157E-4,0
STARLINK-5816,2023-028AP,2026-07-02T10:18:47.470176,14.98327387,.00031474,69.9990,295.0090,277.1606,82.9195,0,U,55778,999,18372,.11241348E-3,.1248E-4,0
STARLINK-5817,2023-028AQ,2026-07-02T12:48:39.819744,14.98327412,.0003567,69.9999,274.6920,269.9883,90.0868,0,U,55779,999,18423,-.2019518E-5,-.117E-5,0
STARLINK-5819,2023-028AR,2026-07-02T10:12:45.800640,14.98342676,.00038312,69.9992,294.9936,284.7696,75.3038,0,U,55780,999,18372,-.24808378E-3,-.3053E-4,0
STARLINK-5820,2023-028AS,2026-07-02T13:43:05.239488,14.98327257,.00033147,69.9992,294.7357,269.9664,90.1115,0,U,55781,999,18374,-.40577688E-4,-.577E-5,0
STARLINK-5826,2023-028AT,2026-07-02T11:06:47.577888,14.98328968,.00035989,69.9998,275.2527,268.0847,91.9900,0,U,55782,999,18421,.14861982E-4,.84E-6,0
STARLINK-5825,2023-028AU,2026-07-02T11:06:33.397056,14.98326152,.00033922,69.9993,275.2489,269.1711,90.9059,0,U,55783,999,18421,.5598933E-5,-.26E-6,0
STARLINK-5797,2023-028AV,2026-07-01T15:28:46.299648,14.98943386,.00033948,70.0005,277.2092,285.9016,74.1769,0,U,55784,999,18409,.15338752E-1,.191013E-2,0
STARLINK-5818,2023-028AW,2026-07-02T12:36:40.940640,14.98327405,.00030862,69.9993,275.0665,268.2765,91.8041,0,U,55785,999,18422,.11311018E-4,.42E-6,0
STARLINK-5823,2023-028AX,2026-07-02T00:00:02.000160,14.98325851,.00034427,70.0006,276.3150,268.4648,205.7012,0,U,55786,999,578,-.87959924E-4,-.1142E-4,0
