STARLINK-5617           
1 55753U 23028N   26183.46767213 -.00000165  00000+0 -60559-5 0  9999
2 55753  69.9997 315.0255 0003115 269.9619  90.1183 14.98330006183232
STARLINK-5612           
1 55754U 23028P   26183.65944029 -.00000152  00000+0 -49680-5 0  9991
2 55754  69.9996 314.4898 0003119 270.3472  89.7329 14.98328327183267
STARLINK-5614           
1 55756U 23028R   26183.44246596  .00000049  00000+0  11894-4 0  9992
2 55756  69.9995 314.9353 0003011 267.9900  92.0914 14.98332721183235
STARLINK-5544           
1 55757U 23028S   26183.46333173  .00000715  00000+0  67710-4 0  9991
2 55757  69.9994 315.0095 0003051 268.6971  91.3838 14.98331392183230
STARLINK-5072           
1 55758U 23028T   26183.65526656 -.00000214  00000+0 -10141-4 0  9995
2 55758  69.9993 314.4759 0003270 270.0452  90.0332 14.98328011183266
STARLINK-5532           
1 55760U 23028V   26183.43828900  .00000078  00000+0  14340-4 0  9992
2 55760  69.9999 314.9227 0003125 269.4772  90.6029 14.98328756183238
STARLINK-5611           
1 55761U 23028W   26183.41738621 -.00000422  00000+0 -27566-4 0  9990
2 55761  69.9999 295.3708 0003159 271.8506  88.2291 14.98328595183712
STARLINK-5603           
1 55762U 23028X   26183.60497820 -.00000287  00000+0 -16255-4 0  9997
2 55762  69.9996 294.8202 0003232 270.5559  89.5230 14.98328428183744
STARLINK-5593           
1 55763U 23028Y   26183.64691836 -.00000325  00000+0 -19408-4 0  9991
2 55763  69.9997 314.4471 0003291 269.0302  91.0480 14.98326959183266
STARLINK-5499           
1 55764U 23028Z   26183.47564209 -.00002273  00000+0 -18273-3 0  9998
2 55764  70.0006 295.1726 0002816 259.9980 100.0861 14.98332472183723
STARLINK-5595           
1 55765U 23028AA  26183.47980508 -.00000193  00000+0 -83647-5 0  9991
2 55765  69.9998 295.1859 0003062 270.0870  89.9938 14.98331034183727
STARLINK-5599           
1 55766U 23028AB  26183.58828117 -.00000580  00000+0 -40788-4 0  9999
2 55766  69.9982 294.7617 0004362 276.4078  83.6585 14.98328775183741
STARLINK-5606           
1 55767U 23028AC  26183.41722113  .00001341  00000+0  12018-3 0  9999
2 55767  69.9994 295.3691 0003064 269.4947  90.5860 14.98334159183699
STARLINK-5584           
1 55769U 23028AE  26183.59663151 -.00000334  00000+0 -20230-4 0  9995
2 55769  69.9998 294.7920 0003395 269.5863  90.4907 14.98327126183741
STARLINK-5557           
1 55770U 23028AF  26183.59245683 -.00000530  00000+0 -36654-4 0  9998
2 55770  70.0001 294.7762 0003053 268.7585  91.3225 14.98331241183744
STARLINK-5591           
1 55771U 23028AG  26183.58411136 -.00001619  00000+0 -12792-3 0  9991
2 55771  69.9995 294.7468 0003132 267.6396  92.4405 14.98319592183740
STARLINK-5835           
1 55772U 23028AH  26183.56757665 -.00000144  00000+0 -42468-5 0  9997
2 55772  69.9998 294.6890 0003078 271.6283  88.4524 14.98327445183744
STARLINK-5833           
1 55773U 23028AJ  26183.60080492 -.00000773  00000+0 -56972-4 0  9992
2 55773  69.9994 294.8028 0003379 269.9540  90.1232 14.98332175183748
STARLINK-5812           
1 55774U 23028AK  26183.44641491 -.00000054  00000+0  33118-5 0  9996
2 55774  69.9998 295.0684 0003171 271.2854  88.7942 14.98325551183727
STARLINK-5809           
1 55775U 23028AL  26183.57576090 -.00000203  00000+0 -92575-5 0  9992
2 55775  69.9991 294.7166 0003184 270.8344  89.2450 14.98325882183744
STARLINK-5814           
1 55777U 23028AN  26183.56741241 -.00001570  00000+0 -12381-3 0  9998
2 55777  69.9992 294.6870 0003021 269.2417  90.8396 14.98334697183742
STARLINK-5816           
1 55778U 23028AP  26183.42971609  .00001248  00000+0  11241-3 0  9991
2 55778  69.9990 295.0090 0003147 277.1606  82.9195 14.98327387183722
STARLINK-5817           
1 55779U 23028AQ  26183.53379421 -.00000117  00000+0 -20195-5 0  9994
2 55779  69.9999 274.6920 0003567 269.9883  90.0868 14.98327412184232
STARLINK-5819           
1 55780U 23028AR  26183.42553010 -.00003053  00000+0 -24808-3 0  9997
2 55780  69.9992 294.9936 0003831 284.7696  75.3038 14.98342676183727
STARLINK-5820           
1 55781U 23028AS  26183.57158842 -.00000577  00000+0 -40578-4 0  9999
2 55781  69.9992 294.7357 0003314 269.9664  90.1115 14.98327257183740
STARLINK-5826           
1 55782U 23028AT  26183.46305067  .00000084  00000+0  14862-4 0  9999
2 55782  69.9998 275.2527 0003598 268.0847  91.9900 14.98328968184211
STARLINK-5825           
1 55783U 23028AU  26183.46288654 -.00000026  00000+0  55989-5 0  9995
2 55783  69.9993 275.2489 0003392 269.1711  90.9059 14.98326152184215
STARLINK-5797           
1 55784U 23028AV  26182.64498032  .00191013  00000+0  15339-1 0  9995
2 55784  70.0005 277.2092 0003394 285.9016  74.1769 14.98943386184093
STARLINK-5818           
1 55785U 23028AW  26183.52547385  .00000042  00000+0  11311-4 0  9990
2 55785  69.9993 275.0665 0003086 268.2765  91.8041 14.98327405184224
STARLINK-5823           
1 55786U 23028AX  26183.00002315 -.00001142  00000+0 -87960-4 0  9990
2 55786  70.0006 276.3150 0003442 268.4648 205.7012 14.98325851  5784
